     2.100          NAVIGATION                              RINEX VERSION / TYPE
fic2rin                                 12/26/2009 00:53:44 PGM / RUN BY / DATE
                                                            END OF HEADER
28 09 12 25  7 59 44.0 -.243890099227D-04  .454747350886D-12  .000000000000D+00
     .000000000000D+00 -.237187500000D+02  .472519682341D-08  .100014870624D+01
    -.120140612125D-05  .155535991071D-01  .688247382641D-05  .515365524673D+04
     .460784000000D+06 -.242143869400D-06  .634968576533D-01  .689178705215D-07
     .968981034681D+00  .257156250000D+03 -.199891605648D+01 -.838570644119D-08
     .232152527227D-10  .100000000000D+01  .156300000000D+04  .000000000000D+00
     .240000000000D+01  .000000000000D+00 -.107102096081D-07  .000000000000D+00
     .460296000000D+06  .400000000000D+01
 3 09 12 25  9 59 44.0  .492685474455D-03  .511590769747D-11  .000000000000D+00
     .500000000000D+02 -.340625000000D+02  .558058959681D-08  .139306397505D+00
    -.161677598953D-05  .127465099795D-01  .780634582043D-05  .515367739868D+04
     .467984000000D+06 -.100582838058D-06  .959579167398D+00  .162050127983D-06
     .926628517614D+00  .210375000000D+03  .975227399370D+00 -.870714840197D-08
    -.223937899341D-09  .100000000000D+01  .156300000000D+04  .000000000000D+00
     .240000000000D+01  .000000000000D+00 -.419095158577D-08  .500000000000D+02
     .460806000000D+06  .400000000000D+01
14 09 12 25  9 59 44.0 -.795815140009D-05  .454747350886D-11  .000000000000D+00
     .300000000000D+01 -.359062500000D+02  .391516308226D-08  .942123279239D+00
    -.194646418095D-05  .507287273649D-02  .641122460365D-05  .515368893814D+04
     .467984000000D+06 -.800937414169D-07 -.202065760850D+01 -.316649675369D-07
     .987201221465D+00  .268531250000D+03 -.209730249798D+01 -.794033074665D-08
    -.168578450541D-09  .100000000000D+01  .156300000000D+04  .000000000000D+00
     .240000000000D+01  .000000000000D+00 -.884756445885D-08  .300000000000D+01
     .460806000000D+06  .400000000000D+01
18 09 12 25  9 59 44.0  .371513888240D-04  .272848410532D-11  .000000000000D+00
     .800000000000D+01  .518437500000D+02  .497556439509D-08  .284073754238D+01
     .259466469288D-05  .109021911630D-01  .455230474472D-05  .515365649605D+04
     .467984000000D+06 -.502914190292D-07 -.308563282888D+01 -.124797224998D-06
     .939709233267D+00  .279156250000D+03 -.235682630696D+01 -.829105964163D-08
     .157149403046D-10  .100000000000D+01  .156300000000D+04  .000000000000D+00
     .240000000000D+01  .000000000000D+00 -.107102096081D-07  .800000000000D+01
     .460806000000D+06  .400000000000D+01
25 09 12 25  9 59 44.0  .631688162684D-04  .101181285572D-10  .000000000000D+00
     .650000000000D+02 -.157500000000D+02  .412374319903D-08 -.305504270128D+01
    -.856816768646D-06  .114744408056D-01  .807084143162D-05  .515369585419D+04
     .467984000000D+06  .968575477600D-07 -.110880202386D+01  .137835741043D-06
     .971837652871D+00  .226406250000D+03 -.121605053343D+01 -.771639284731D-08
     .217509060125D-09  .100000000000D+01  .156300000000D+04  .000000000000D+00
     .240000000000D+01  .630000000000D+02 -.745058059692D-08  .650000000000D+02
     .460806000000D+06  .400000000000D+01
28 09 12 25  9 59 44.0 -.243862159550D-04  .454747350886D-12  .000000000000D+00
     .190000000000D+02 -.306875000000D+02  .451947396852D-08  .205026983534D+01
    -.181607902050D-05  .155537470710D-01  .645965337753D-05  .515365735626D+04
     .467984000000D+06 -.167638063431D-07  .634367287944D-01 -.383704900742D-06
     .968983700118D+00  .260843750000D+03 -.199884429157D+01 -.792854454142D-08
     .178936024832D-09  .100000000000D+01  .156300000000D+04  .000000000000D+00
     .240000000000D+01  .000000000000D+00 -.107102096081D-07  .190000000000D+02
     .460806000000D+06  .400000000000D+01
 1 09 12 25 10  0  0.0 -.734915956855D-04 -.295585778076D-11  .000000000000D+00
     .860000000000D+02 -.184687500000D+02  .595739100639D-08  .295867948572D+01
    -.998377799988D-06  .382098299451D-02  .654906034470D-05  .515365548325D+04
     .468000000000D+06 -.279396772385D-07  .248143982821D-01 -.763684511185D-07
     .963354132412D+00  .253375000000D+03  .949066070468D+00 -.806533595362D-08
     .208222959036D-09  .100000000000D+01  .156300000000D+04  .000000000000D+00
     .240000000000D+01  .630000000000D+02 -.190921127796D-07  .860000000000D+02
     .460806000000D+06  .400000000000D+01
 2 09 12 25 10  0  0.0  .207720790058D-03  .443378667114D-11  .000000000000D+00
     .740000000000D+02  .586250000000D+02  .505271046567D-08  .358466586521D+00
     .290386378765D-05  .924472918268D-02  .919774174690D-05  .515375516891D+04
     .468000000000D+06  .189989805222D-06  .211027691362D+01 -.186264514923D-07
     .940146796453D+00  .192250000000D+03  .293069920983D+01 -.838499212572D-08
    -.778603860547D-10  .100000000000D+01  .156300000000D+04  .000000000000D+00
     .240000000000D+01  .000000000000D+00 -.172294676304D-07  .740000000000D+02
     .460806000000D+06  .400000000000D+01
 4 09 12 25 10  0  0.0 -.424095895141D-03 -.187583282241D-10  .000000000000D+00
     .124000000000D+03  .696250000000D+02  .488627496154D-08 -.301742045229D+01
     .345148146152D-05  .910863920581D-02  .933744013309D-05  .515360470390D+04
     .468000000000D+06 -.167638063431D-07  .212836394560D+01 -.894069671631D-07
     .939327433592D+00  .188968750000D+03  .578801867410D+00 -.810248035797D-08
    -.246438836595D-10  .100000000000D+01  .156300000000D+04  .000000000000D+00
     .340000000000D+01  .000000000000D+00 -.605359673500D-08  .124000000000D+03
     .460806000000D+06  .400000000000D+01
 5 09 12 25 10  0  0.0 -.243065878749D-04  .477484718431D-11  .000000000000D+00
     .980000000000D+02  .503437500000D+02  .468090926437D-08  .177074305739D+01
     .268220901489D-05  .178605725523D-02  .490993261337D-05  .515362150764D+04
     .468000000000D+06 -.260770320892D-07 -.311449326943D+01 -.353902578354D-07
     .960647088819D+00  .286750000000D+03  .284091075042D+00 -.829105964163D-08
    -.400016662300D-10  .100000000000D+01  .156300000000D+04  .000000000000D+00
     .340000000000D+01  .000000000000D+00 -.884756445885D-08  .980000000000D+02
     .460806000000D+06  .400000000000D+01
 6 09 12 25 10  0  0.0  .263032969087D-03 -.909494701773D-12  .000000000000D+00
     .560000000000D+02 -.370000000000D+02  .529414909399D-08  .242892001441D+01
    -.180862843990D-05  .582329183817D-02  .792555510998D-05  .515366455269D+04
     .468000000000D+06  .875443220139D-07  .102893508072D+01 -.260770320892D-07
     .933984947468D+00  .208281250000D+03 -.118185749754D+01 -.828463080241D-08
    -.257867884090D-09  .100000000000D+01  .156300000000D+04  .000000000000D+00
     .240000000000D+01  .000000000000D+00 -.512227416039D-08  .560000000000D+02
     .460806000000D+06  .400000000000D+01
 7 09 12 25 10  0  0.0  .541331246495D-05 -.682121026330D-12  .000000000000D+00
     .160000000000D+02 -.160000000000D+02  .424981987920D-08 -.136541755316D+01
    -.100024044514D-05  .323756365106D-02  .813230872154D-05  .515372960472D+04
     .468000000000D+06 -.484287738800D-07 -.101471476943D+01 -.353902578354D-07
     .969897305624D+00  .227968750000D+03  .305999949783D+01 -.793318759196D-08
     .293583657509D-09  .100000000000D+01  .156300000000D+04  .000000000000D+00
     .240000000000D+01  .000000000000D+00 -.107102096081D-07  .160000000000D+02
     .460806000000D+06  .400000000000D+01
 8 09 12 25 10  0  0.0  .132620334625D-05  .454747350886D-12  .000000000000D+00
     .730000000000D+02 -.139062500000D+02  .377765735459D-08 -.196013328481D+01
    -.946223735809D-06  .109930505278D-01  .900216400623D-05  .515373790741D+04
     .468000000000D+06 -.856816768646D-07 -.949965655368D+00 -.122934579849D-06
     .991208164324D+00  .226125000000D+03  .307501710825D+01 -.768889170177D-08
     .413231498465D-09  .100000000000D+01  .156300000000D+04  .000000000000D+00
     .340000000000D+01  .000000000000D+00 -.372529029846D-08  .730000000000D+02
     .460806000000D+06  .400000000000D+01
 9 09 12 25 10  0  0.0  .960500910878D-04  .216004991671D-11  .000000000000D+00
     .240000000000D+02 -.226250000000D+02  .395302180208D-08 -.214961529425D+01
    -.103935599327D-05  .206331164809D-01  .867061316967D-05  .515361889267D+04
     .468000000000D+06  .333413481712D-06 -.104721672030D+01  .135973095894D-06
     .978712166787D+00  .215562500000D+03  .152379807784D+01 -.750674125733D-08
     .339657005220D-09  .100000000000D+01  .156300000000D+04  .000000000000D+00
     .240000000000D+01  .000000000000D+00 -.558793544769D-08  .240000000000D+02
     .460806000000D+06  .400000000000D+01
10 09 12 25 10  0  0.0 -.311364419758D-04 -.795807864051D-12  .000000000000D+00
     .890000000000D+02  .468437500000D+02  .481984362298D-08  .164344655754D+01
     .244006514549D-05  .893614860252D-02  .502727925777D-05  .515342410278D+04
     .468000000000D+06 -.154599547386D-06 -.308787844031D+01  .298023223877D-07
     .955708796719D+00  .283437500000D+03  .632393125346D+00 -.842785105383D-08
    -.100361323309D-09  .100000000000D+01  .156300000000D+04  .000000000000D+00
     .485000000000D+01  .000000000000D+00 -.279396772385D-08  .890000000000D+02
     .460806000000D+06  .400000000000D+01
11 09 12 25 10  0  0.0 -.360985286534D-04 -.193267624127D-11  .000000000000D+00
     .600000000000D+02  .377812500000D+02  .608132474016D-08 -.146414273188D+01
     .196322798729D-05  .103875953937D-01  .861659646034D-05  .515371540070D+04
     .468000000000D+06  .251457095146D-06  .189941291547D+01 -.558793544769D-07
     .888425424314D+00  .173531250000D+03  .777929157609D+00 -.866321800066D-08
    -.100361323309D-09  .100000000000D+01  .156300000000D+04  .000000000000D+00
     .240000000000D+01  .000000000000D+00 -.116415321827D-07  .600000000000D+02
     .460806000000D+06  .400000000000D+01
